start=new Date('2023-06-29T00:00:00.000Z').valueOf();
sats=[{"MEAN_ANOMALY":"280.7987","OBJECT_ID":"2020-073AC","MEAN_MOTION_DDOT":"0.0000000000000","SITE":"AFETR","GP_ID":"234611247","REF_FRAME":"TEME","RA_OF_ASC_NODE":"323.5140","MEAN_ELEMENT_THEORY":"SGP4","DECAY_DATE":null,"MEAN_MOTION_DOT":"0.00005378","OBJECT_NAME":"STARLINK-1795","INCLINATION":"53.0552","EPOCH":"2023-06-28T16:14:40.632288","COUNTRY_CODE":"US","PERIOD":"95.593","SEMIMAJOR_AXIS":"6925.366","OBJECT_TYPE":"PAYLOAD","CLASSIFICATION_TYPE":"U","BSTAR":"0.00037973000000","MEAN_MOTION":"15.06394302","TIME_SYSTEM":"UTC","EPHEMERIS_TYPE":"0","NORAD_CAT_ID":"46696","RCS_SIZE":"LARGE","FILE":"3945195","PERIAPSIS":"546.568","ARG_OF_PERICENTER":"79.3109","TLE_LINE1":"1 46696U 20073AC  23179.67685917  .00005378  00000-0  37973-3 0  9999","APOAPSIS":"547.894","CENTER_NAME":"EARTH","TLE_LINE2":"2 46696  53.0552 323.5140 0000958  79.3109 280.7987 15.06394302149426","ECCENTRICITY":"0.00009580","REV_AT_EPOCH":"14942","LAUNCH_DATE":"2020-10-18","ELEMENT_SET_NO":"999"},{"MEAN_MOTION_DOT":"0.00005655","OBJECT_NAME":"STARLINK-1797","INCLINATION":"53.0552","EPOCH":"2023-06-28T04:51:16.086528","COUNTRY_CODE":"US","PERIOD":"95.593","SEMIMAJOR_AXIS":"6925.366","OBJECT_TYPE":"PAYLOAD","CLASSIFICATION_TYPE":"U","MEAN_ANOMALY":"284.5505","OBJECT_ID":"2020-073AE","MEAN_MOTION_DDOT":"0.0000000000000","SITE":"AFETR","GP_ID":"234605255","REF_FRAME":"TEME","RA_OF_ASC_NODE":"345.6358","MEAN_ELEMENT_THEORY":"SGP4","DECAY_DATE":null,"TLE_LINE1":"1 46698U 20073AE  23179.20226952  .00005655  00000-0  39832-3 0  9994","ARG_OF_PERICENTER":"75.5655","APOAPSIS":"548.301","CENTER_NAME":"EARTH","TLE_LINE2":"2 46698  53.0552 345.6358 0001545  75.5655 284.5505 15.06394277149059","ECCENTRICITY":"0.00015450","REV_AT_EPOCH":"14905","LAUNCH_DATE":"2020-10-18","ELEMENT_SET_NO":"999","BSTAR":"0.00039832000000","MEAN_MOTION":"15.06394277","EPHEMERIS_TYPE":"0","TIME_SYSTEM":"UTC","NORAD_CAT_ID":"46698","FILE":"3944923","RCS_SIZE":"LARGE","PERIAPSIS":"546.161"},{"CENTER_NAME":"EARTH","TLE_LINE1":"1 46699U 20073AF  23179.73767837  .00018353  00000-0  12482-2 0  9995","ARG_OF_PERICENTER":"51.9963","APOAPSIS":"547.818","ECCENTRICITY":"0.00008180","TLE_LINE2":"2 46699  53.0554 343.2417 0000818  51.9963 308.1100 15.06387669149112","LAUNCH_DATE":"2020-10-18","ELEMENT_SET_NO":"999","REV_AT_EPOCH":"14911","MEAN_MOTION":"15.06387669","BSTAR":"0.00124820000000","NORAD_CAT_ID":"46699","TIME_SYSTEM":"UTC","EPHEMERIS_TYPE":"0","RCS_SIZE":"LARGE","FILE":"3945195","PERIAPSIS":"546.685","MEAN_MOTION_DOT":"0.00018353","OBJECT_NAME":"STARLINK-1799","INCLINATION":"53.0554","COUNTRY_CODE":"US","EPOCH":"2023-06-28T17:42:15.411168","SEMIMAJOR_AXIS":"6925.386","PERIOD":"95.593","OBJECT_TYPE":"PAYLOAD","CLASSIFICATION_TYPE":"U","SITE":"AFETR","GP_ID":"234611757","MEAN_ANOMALY":"308.1100","OBJECT_ID":"2020-073AF","MEAN_MOTION_DDOT":"0.0000000000000","RA_OF_ASC_NODE":"343.2417","MEAN_ELEMENT_THEORY":"SGP4","REF_FRAME":"TEME","DECAY_DATE":null},{"DECAY_DATE":null,"REF_FRAME":"TEME","RA_OF_ASC_NODE":"358.2236","MEAN_ELEMENT_THEORY":"SGP4","MEAN_ANOMALY":"265.2480","OBJECT_ID":"2020-073AG","MEAN_MOTION_DDOT":"0.0000000000000","SITE":"AFETR","GP_ID":"234611254","CLASSIFICATION_TYPE":"U","PERIOD":"95.593","SEMIMAJOR_AXIS":"6925.380","OBJECT_TYPE":"PAYLOAD","EPOCH":"2023-06-28T17:48:13.164192","COUNTRY_CODE":"US","MEAN_MOTION_DOT":"0.00002082","OBJECT_NAME":"STARLINK-1800","INCLINATION":"53.0546","PERIAPSIS":"546.517","FILE":"3945195","RCS_SIZE":"LARGE","EPHEMERIS_TYPE":"0","TIME_SYSTEM":"UTC","NORAD_CAT_ID":"46700","BSTAR":"0.00015866000000","MEAN_MOTION":"15.06389868","REV_AT_EPOCH":"14894","LAUNCH_DATE":"2020-10-18","ELEMENT_SET_NO":"999","ECCENTRICITY":"0.00010510","TLE_LINE2":"2 46700  53.0546 358.2236 0001051  94.8629 265.2480 15.06389868148943","TLE_LINE1":"1 46700U 20073AG  23179.74181903  .00002082  00000-0  15866-3 0  9995","ARG_OF_PERICENTER":"94.8629","APOAPSIS":"547.972","CENTER_NAME":"EARTH"},{"CLASSIFICATION_TYPE":"U","PERIOD":"95.593","SEMIMAJOR_AXIS":"6925.380","OBJECT_TYPE":"PAYLOAD","EPOCH":"2023-06-28T10:37:37.150176","COUNTRY_CODE":"US","INCLINATION":"53.0553","MEAN_MOTION_DOT":"-0.00004683","OBJECT_NAME":"STARLINK-1801","DECAY_DATE":null,"REF_FRAME":"TEME","RA_OF_ASC_NODE":"344.5683","MEAN_ELEMENT_THEORY":"SGP4","MEAN_ANOMALY":"264.4244","MEAN_MOTION_DDOT":"0.0000000000000","OBJECT_ID":"2020-073AH","SITE":"AFETR","GP_ID":"234605131","REV_AT_EPOCH":"14911","ELEMENT_SET_NO":"999","LAUNCH_DATE":"2020-10-18","TLE_LINE2":"2 46701  53.0553 344.5683 0001327  95.6896 264.4244 15.06389800149112","ECCENTRICITY":"0.00013270","ARG_OF_PERICENTER":"95.6896","TLE_LINE1":"1 46701U 20073AH  23179.44279109 -.00004683  00000-0 -29578-3 0  9995","APOAPSIS":"548.164","CENTER_NAME":"EARTH","PERIAPSIS":"546.326","RCS_SIZE":"LARGE","FILE":"3944947","TIME_SYSTEM":"UTC","EPHEMERIS_TYPE":"0","NORAD_CAT_ID":"46701","BSTAR":"-0.00029578000000","MEAN_MOTION":"15.06389800"},{"MEAN_MOTION":"15.06388263","BSTAR":"0.00020072000000","NORAD_CAT_ID":"46702","EPHEMERIS_TYPE":"0","TIME_SYSTEM":"UTC","FILE":"3944947","RCS_SIZE":"LARGE","PERIAPSIS":"546.234","CENTER_NAME":"EARTH","APOAPSIS":"548.265","TLE_LINE1":"1 46702U 20073AJ  23179.38935279  .00002709  00000-0  20072-3 0  9991","ARG_OF_PERICENTER":"97.4571","TLE_LINE2":"2 46702  53.0554 324.8088 0001467  97.4571 262.6585 15.06388263149399","ECCENTRICITY":"0.00014670","LAUNCH_DATE":"2020-10-18","ELEMENT_SET_NO":"999","REV_AT_EPOCH":"14939","GP_ID":"234605132","SITE":"AFETR","MEAN_MOTION_DDOT":"0.0000000000000","OBJECT_ID":"2020-073AJ","MEAN_ANOMALY":"262.6585","MEAN_ELEMENT_THEORY":"SGP4","RA_OF_ASC_NODE":"324.8088","REF_FRAME":"TEME","DECAY_DATE":null,"MEAN_MOTION_DOT":"0.00002709","OBJECT_NAME":"STARLINK-1802","INCLINATION":"53.0554","COUNTRY_CODE":"US","EPOCH":"2023-06-28T09:20:40.081056","OBJECT_TYPE":"PAYLOAD","PERIOD":"95.593","SEMIMAJOR_AXIS":"6925.385","CLASSIFICATION_TYPE":"U"},{"CENTER_NAME":"EARTH","APOAPSIS":"547.898","ARG_OF_PERICENTER":"81.8206","TLE_LINE1":"1 46703U 20073AK  23179.75242003  .00017301  00000-0  11780-2 0  9998","LAUNCH_DATE":"2020-10-18","ELEMENT_SET_NO":"999","REV_AT_EPOCH":"14915","TLE_LINE2":"2 46703  53.0546 343.1736 0000918  81.8206 278.2887 15.06384025149151","ECCENTRICITY":"0.00009180","NORAD_CAT_ID":"46703","TIME_SYSTEM":"UTC","EPHEMERIS_TYPE":"0","MEAN_MOTION":"15.06384025","BSTAR":"0.00117800000000","PERIAPSIS":"546.627","FILE":"3945252","RCS_SIZE":"LARGE","COUNTRY_CODE":"US","EPOCH":"2023-06-28T18:03:29.090592","OBJECT_NAME":"STARLINK-1803","MEAN_MOTION_DOT":"0.00017301","INCLINATION":"53.0546","CLASSIFICATION_TYPE":"U","OBJECT_TYPE":"PAYLOAD","PERIOD":"95.593","SEMIMAJOR_AXIS":"6925.398","GP_ID":"234611258","SITE":"AFETR","OBJECT_ID":"2020-073AK","MEAN_MOTION_DDOT":"0.0000000000000","MEAN_ANOMALY":"278.2887","DECAY_DATE":null,"MEAN_ELEMENT_THEORY":"SGP4","RA_OF_ASC_NODE":"343.1736","REF_FRAME":"TEME"},{"TLE_LINE1":"1 46704U 20073AL  23179.40041664  .00011803  00000-0  81009-3 0  9994","ARG_OF_PERICENTER":"86.8351","APOAPSIS":"548.387","CENTER_NAME":"EARTH","TLE_LINE2":"2 46704  53.0546 324.7548 0001662  86.8351 273.2828 15.06392624149391","ECCENTRICITY":"0.00016620","REV_AT_EPOCH":"14939","LAUNCH_DATE":"2020-10-18","ELEMENT_SET_NO":"999","BSTAR":"0.00081009000000","MEAN_MOTION":"15.06392624","EPHEMERIS_TYPE":"0","TIME_SYSTEM":"UTC","NORAD_CAT_ID":"46704","FILE":"3944947","RCS_SIZE":"LARGE","PERIAPSIS":"546.085","MEAN_MOTION_DOT":"0.00011803","OBJECT_NAME":"STARLINK-1804","INCLINATION":"53.0546","EPOCH":"2023-06-28T09:36:35.997696","COUNTRY_CODE":"US","SEMIMAJOR_AXIS":"6925.371","PERIOD":"95.593","OBJECT_TYPE":"PAYLOAD","CLASSIFICATION_TYPE":"U","MEAN_ANOMALY":"273.2828","OBJECT_ID":"2020-073AL","MEAN_MOTION_DDOT":"0.0000000000000","SITE":"AFETR","GP_ID":"234605120","REF_FRAME":"TEME","RA_OF_ASC_NODE":"324.7548","MEAN_ELEMENT_THEORY":"SGP4","DECAY_DATE":null},{"CLASSIFICATION_TYPE":"U","OBJECT_TYPE":"PAYLOAD","SEMIMAJOR_AXIS":"6925.379","PERIOD":"95.593","EPOCH":"2023-06-28T16:17:59.515584","COUNTRY_CODE":"US","INCLINATION":"53.0549","MEAN_MOTION_DOT":"0.00000954","OBJECT_NAME":"STARLINK-1805","DECAY_DATE":null,"REF_FRAME":"TEME","MEAN_ELEMENT_THEORY":"SGP4","RA_OF_ASC_NODE":"358.5023","MEAN_MOTION_DDOT":"0.0000000000000","OBJECT_ID":"2020-073AM","MEAN_ANOMALY":"266.6864","GP_ID":"234611265","SITE":"AFETR","REV_AT_EPOCH":"14893","ELEMENT_SET_NO":"999","LAUNCH_DATE":"2020-10-18","TLE_LINE2":"2 46705  53.0549 358.5023 0001865  93.4339 266.6864 15.06390071148932","ECCENTRICITY":"0.00018650","APOAPSIS":"548.536","ARG_OF_PERICENTER":"93.4339","TLE_LINE1":"1 46705U 20073AM  23179.67916106  .00000954  00000-0  82943-4 0  9990","CENTER_NAME":"EARTH","PERIAPSIS":"545.952","RCS_SIZE":"LARGE","FILE":"3945252","EPHEMERIS_TYPE":"0","TIME_SYSTEM":"UTC","NORAD_CAT_ID":"46705","BSTAR":"0.00008294300000","MEAN_MOTION":"15.06390071"},{"CLASSIFICATION_TYPE":"U","OBJECT_TYPE":"PAYLOAD","SEMIMAJOR_AXIS":"6925.368","PERIOD":"95.593","EPOCH":"2023-06-28T17:15:43.143840","COUNTRY_CODE":"US","OBJECT_NAME":"STARLINK-1807","MEAN_MOTION_DOT":"0.00002553","INCLINATION":"53.0559","DECAY_DATE":null,"REF_FRAME":"TEME","MEAN_ELEMENT_THEORY":"SGP4","RA_OF_ASC_NODE":"343.3228","OBJECT_ID":"2020-073AN","MEAN_MOTION_DDOT":"0.0000000000000","MEAN_ANOMALY":"257.4482","GP_ID":"234611764","SITE":"AFETR","REV_AT_EPOCH":"14915","ELEMENT_SET_NO":"999","LAUNCH_DATE":"2020-10-18","TLE_LINE2":"2 46706  53.0559 343.3228 0001063 102.6626 257.4482 15.06393730149159","ECCENTRICITY":"0.00010630","APOAPSIS":"547.969","ARG_OF_PERICENTER":"102.6626","TLE_LINE1":"1 46706U 20073AN  23179.71924935  .00002553  00000-0  19026-3 0  9993","CENTER_NAME":"EARTH","PERIAPSIS":"546.497","RCS_SIZE":"LARGE","FILE":"3945252","EPHEMERIS_TYPE":"0","TIME_SYSTEM":"UTC","NORAD_CAT_ID":"46706","BSTAR":"0.00019026000000","MEAN_MOTION":"15.06393730"}];
